#dP2022  5 20  0  0  0.00000000      97 __u+U IGS14 FIT  IAC
## 2210 432000.00000000   900.00000000 59719 0.0000000000000
+  115   C06C07C08C09C10C11C12C13C14C16C19C20C21C22C23C24C25
+        C26C27C28C29C30C32C33C34C35C36C37C38C39C40C41C42C43
+        C44C45C46E01E02E03E04E05E07E08E09E10E11E12E13E14E15
+        E18E19E21E24E25E26E27E30E31E33E34E36G01G02G03G04G05
+        G06G07G08G09G10G12G13G14G15G16G17G19G20G21G22G23G24
+        G25G26G27G28G29G30G31G32J02J03R01R02R03R04R05R07R08
+        R09R11R12R13R14R15R17R18R19R20R21R22R24  0  0  0  0
++         7  7  7  7  7  7  6  7  7  7  5  6  6  6  6  5  6
++         5  5  5  5  5  5  6  6  6  6  6  6  7  6  6  6  6
++         6  6  6  4  4  4  4  4  4  4  4  4  4  4  4  4  4
++         5  4  4  4  4  4  4  4  4  4  4  4  3  3  3  3  3
++         3  3  3  3  3  4  3  4  3  3  4  4  3  3  4  3  3
++         3  4  3  4  3  3  4  3  9  9  7  6  6  6  6  6  6
++         6  6  6  7  6  6  6  6  7  7  6  7  6  0  0  0  0
%c M  cc GPS ccc cccc cccc cccc cccc ccccc ccccc ccccc ccccc
%c cc cc ccc ccc cccc cccc cccc cccc ccccc ccccc ccccc ccccc
%f  1.2500000  1.025000000  0.00000000000  0.000000000000000
%f  0.0000000  0.000000000  0.00000000000  0.000000000000000
%i    0    0    0    0      0      0      0      0         0
%i    0    0    0    0      0      0      0      0         0
/* INFORMATION & ANALYSIS CENTER (IAC)            FINAL DATA
/* S/V CLOCKS ARE ALIGNED TO GNSS TIME                      
/* G:C1WC2W R:C1PC2P E:C1XC5X C:C2IC6I J:C1CC2S             
/* PCV:IGS14_2196 OL/AL:FES2004  NONE     YN ORB:CoN CLK:CoN
*  2022 05 20 15 45  0.00000000
PC06   -938.411797  34908.746531  23807.921003     22.797846
PC07 -13739.598450  26184.980243 -30107.162665   -191.308976
PC08 -16721.432800  37819.385050   7873.605787    322.573159
PC09   4524.395848  38532.241377  17471.877235   -805.443108
PC10  -4775.623712  26915.130797 -31909.999891    131.282502
PC11 -17749.512282  -2750.086738 -21308.055789    363.988739
PC12 -18135.804697 -19326.293449  -8726.729546   -613.121704
PC13 -10392.516081  38034.574042  14676.624625    -27.340928
PC14 -27737.075604   2481.970474   2293.741936    479.399686
PC16  -3220.636048  32901.470418  26499.504441    133.127818
PC19  24040.144372  -8518.131870 -11266.099140    868.059226
PC20  27198.791508   2887.206024   5461.412572   -922.891249
PC21 -14211.608540 -13312.668474 -19977.245293   -326.648426
PC22   6798.511562 -15474.271951 -22193.047181   -968.982696
PC23  -9948.380003  25609.040164  -4890.545279   -930.345824
PC24 -16522.417730  -3104.201961  22263.040178   -966.952134
PC25 -18367.119963  17417.773621  11720.373130   -733.885928
PC26  -5884.794602 -19094.448352  19484.161134    735.152754
PC27  14362.430787  23936.904186     93.977496    726.173244
PC28    907.108920  22942.309314 -15863.181271     68.979366
PC29  13359.386038  -8641.826376  22913.601125    557.247135
PC30  20224.225709  11060.181587  15733.976297    498.766405
PC32  14212.771341  13262.102101  20036.139079   -963.815731
PC33 -24054.739284   8655.757756  11226.750780   -966.093546
PC34 -20168.232302 -10047.154649 -16463.462632   -399.275432
PC35   -795.172654 -22443.116351  16529.555515    282.805606
PC36  18870.610928 -16583.769596 -12127.454296   -964.647253
PC37   4546.985415  20008.595729 -18889.345767   -910.345197
PC38 -20269.874952  36888.291549     39.034792    233.494674
PC39  -6606.951253  28827.109087  30152.698534     34.981523
PC40 -19897.045822  19585.679541 -31674.751579    270.638579
PC41  -7311.911171  15500.009527  22080.576388   -966.280366
PC42 -26955.247644  -3467.131844  -6344.181013   -970.469565
PC43 -13919.098075   7991.592064 -22841.314271   -922.992729
PC44 -15108.457785 -23440.245793     49.247351    665.785646
PC45   9755.535876 -25635.736840   5195.158168    762.007804
PC46  17089.495163   1335.868809 -22023.202934   -334.814457
PE01  26601.237531 -11058.912671  -6810.299568   -480.228655
PE02 -26581.241652  11176.333122   6649.103154    300.392639
PE03 -23935.147878   1224.490908  17386.667354   -560.239684
PE04   7856.578784 -15150.569241 -24171.867951  -1032.089564
PE05 -26241.088258 -13698.702843    232.755761   -179.846491
PE07  13238.288044  20445.025691  16825.097082   -670.395598
PE08  -7479.758796  15195.568631  24283.658376   -532.380156
PE09 -13491.031908 -20304.023530 -16791.188983   -524.882917
PE10    930.133015 -29375.048055   3507.458759   -514.255663
PE11  -5603.108725 -28242.672979  -6836.712429   3611.917597
PE12   7177.455073 -25757.694246  12664.541609   4604.254729
PE13   5212.795580  28487.799342   6146.245226    428.797106
PE14  20519.474133  13273.925842   2612.523044  -1832.018204
PE15  -7159.623393  25704.546481 -12825.194001    744.495492
PE18 -27847.138853  -7618.966043 -13931.627184  -1426.477494
PE19  25059.956634    906.307763 -15715.332708  -4987.062571
PE21  20687.202696   3783.084335 -20832.767985   -735.304692
PE24  -1256.131847 -18039.240820  23425.164709   -625.427678
PE25 -20499.666789  -4013.835188  20974.852131   -574.622236
PE26  14798.079455  13569.700706  21748.161621  -1166.817828
PE27   2581.648655  17445.892488 -23769.596327   -303.158992
PE30 -17731.099949  20510.122556 -11873.994027   -525.856081
PE31  16886.971550 -20732.772712  12703.191028   -496.933673
PE33  15253.812286  -7762.442425  24145.846228   -456.449379
PE34 -15207.516252   8023.402564 -24104.828611   -518.014348
PE36 -14439.601637 -14509.506463 -21379.139323   -376.368974
PG01  13034.926740 -14396.563582  17651.051494    358.830290
PG02 -13906.090172  -8845.600039 -20144.262106   -653.201218
PG03  22896.228240 -13047.462374  -2868.385069   -251.025108
PG04  16326.623588  -5494.513183 -20227.993883   -165.424045
PG05 -23730.247217   3181.340856 -11824.798684    -82.539302
PG06  -6298.538530 -22549.900875 -12403.449155    310.782928
PG07   5443.506833 -25232.301904  -4597.811155    322.176079
PG08  21984.577916   1996.186744  14983.761253    -68.793141
PG09   6300.410623 -14198.904996 -21604.912251   -335.254293
PG10   1466.535882  15562.972736  21578.479001   -421.886887
PG12 -24838.280282   9163.429457    756.502084   -218.405565
PG13 -22099.024829 -11776.448379   8959.173616    315.015486
PG14    425.289811 -16353.324589  20905.806734   -109.091310
PG15 -21936.417983   1075.243141  14738.696737    -59.750567
PG16  21904.060360   3089.433636 -15302.893565   -502.488639
PG17  -9617.225963 -20162.075178  14757.534114    614.958769
PG19 -15931.780066 -20060.277028   7157.891614    159.829499
PG20 -17719.307717  -4677.539053 -19139.492656    514.542077
PG21  15390.048554  -3154.140426  21996.205740    161.154562
PG22  17539.561979  19395.922847   5582.032491    262.243489
PG23 -10221.947544  18001.632767  16572.368342    -23.102226
PG24 -14317.103460  10443.809872  19362.224249    237.575737
PG25 -16550.087472  17165.769215 -11693.607898    327.120105
PG26  13589.487121   9891.632342 -20711.199981    206.919236
PG27  23282.823237  12408.606240   4337.709627    205.769456
PG28  -8649.254879 -12944.568807  22009.881562    354.482676
PG29  -7333.362117  13019.418035 -22007.559726   -515.636522
PG30   -755.102821 -26052.777050   4437.163238   -528.600921
PG31   8158.786780  20566.723705 -14474.056727   -178.404020
PG32  12944.786332  19591.563823  12737.775254   -131.517351
PJ02 -35370.657459  22224.127647  -1448.608577     -0.198014
PJ03 -19350.721731  24821.576401 -23477.971169     -2.281471
PR01 -14810.019394 -10615.205752 -17851.639017      8.922108
PR02 -25125.607211  -4206.924910   -183.492580    518.938443
PR03 -19318.435308   4665.484663  16008.239120     56.985170
PR04  -2904.174757  10479.649056  23106.981802    142.437378
PR05  15126.141059  10774.124948  17513.734279     93.199434
PR07  18890.721914  -4900.745803 -16406.939465     35.336112
PR08   2762.839820 -10592.481204 -22977.995039    -65.227587
PR09  15221.039852  -3438.673453 -20136.551645     56.073782
PR11  10506.865791 -21051.197423   9846.780389     38.523089
PR12  -3528.147017 -12450.924039  22009.458949     18.539738
PR13 -14503.858755   2386.243961  20832.544339    -22.556898
PR14 -17693.223179  17107.183384   6753.173482     25.627719
PR15 -10192.294790  20854.893888 -10561.934256     95.994163
PR17  -7700.768248   8740.394470 -22686.835399    527.722290
PR18   1662.298689  21691.260814 -13357.666828    117.492618
PR19   8981.623372  23805.346134   1820.107961   -189.679101
PR20  12708.626515  10753.641788  19345.173782    -70.931342
PR21   6916.528330 -10192.776876  22333.487624   -302.786632
PR22  -1994.278587 -21987.108821  12666.854447   -184.351489
PR24 -13277.449257  -9598.748157 -19544.739429     94.665675
EOF
